[{"OBJECT_NAME":"GHGSAT-C4","OBJECT_ID":"2022-057Q","EPOCH":"2026-03-09T22:58:28.655904","MEAN_MOTION":15.3293316,"ECCENTRICITY":0.0007552,"INCLINATION":97.6357,"RA_OF_ASC_NODE":210.0193,"ARG_OF_PERICENTER":100.0033,"MEAN_ANOMALY":260.2061,"EPHEMERIS_TYPE":0,"CLASSIFICATION_TYPE":"U","NORAD_CAT_ID":52746,"ELEMENT_SET_NO":999,"REV_AT_EPOCH":21033,"BSTAR":0.00030289005,"MEAN_MOTION_DOT":9.562e-5,"MEAN_MOTION_DDOT":0},{"OBJECT_NAME":"STARLINK-35398","OBJECT_ID":"2025-232N","EPOCH":"2026-03-09T11:44:21.782400","MEAN_MOTION":15.30188307,"ECCENTRICITY":0.00015605,"INCLINATION":53.1598,"RA_OF_ASC_NODE":104.9292,"ARG_OF_PERICENTER":69.6563,"MEAN_ANOMALY":290.4605,"EPHEMERIS_TYPE":0,"CLASSIFICATION_TYPE":"U","NORAD_CAT_ID":66017,"ELEMENT_SET_NO":999,"REV_AT_EPOCH":2340,"BSTAR":0.00098897436,"MEAN_MOTION_DOT":0.00029035,"MEAN_MOTION_DDOT":0}]
